NORAD_CAT_ID,OBJECT_NAME,OBJECT_TYPE,EPOCH,MEAN_MOTION,ECCENTRICITY,INCLINATION,RA_OF_ASC_NODE,ARG_OF_PERICENTER,MEAN_ANOMALY,BSTAR,MEAN_MOTION_DOT,MEAN_MOTION_DDOT,TLE_LINE0,TLE_LINE1,TLE_LINE2,SEMIMAJOR_AXIS,PERIOD,APOGEE,PERIGEE,DECAYED
55279.0,STARLINK-5323,PAYLOAD,2023-10-11 05:52:56,14.98349336,0.0003193,69.9985,104.3802,266.8843,93.1951,-6.349e-05,-8.51e-06,0.0,0 STARLINK-5323,1 55279U 23010L   23284.24509894 -.00000851  00000-0 -63490-4 0  9996,2 55279  69.9985 104.3802 0003193 266.8843  93.1951 14.98349336 40582,6950.133,96.106,574.217,569.779,0.0
55279.0,STARLINK-5323,PAYLOAD,2023-10-11 13:53:36,14.98333743,0.0003212,69.9984,103.5385,265.8758,94.2034,0.00025956,3.006e-05,0.0,0 STARLINK-5323,1 55279U 23010L   23284.57889967  .00003006  00000-0  25956-3 0  9991,2 55279  69.9984 103.5385 0003212 265.8758  94.2034 14.98333743 40954,6950.181,96.107,574.279,569.814,0.0
55279.0,STARLINK-5323,PAYLOAD,2023-10-11 18:42:00,14.98337305,0.0003233,69.9986,103.0335,265.8243,94.2547,0.0002534,2.932e-05,0.0,0 STARLINK-5323,1 55279U 23010L   23284.77917813  .00002932  00000-0  25340-3 0  9999,2 55279  69.9986 103.0335 0003233 265.8243  94.2547 14.98337305 40663,6950.17,96.107,574.282,569.788,0.0
55279.0,STARLINK-5323,PAYLOAD,2023-10-12 04:18:50,14.98323049,0.000312,69.9984,102.0236,267.8791,92.2011,6.1787e-05,6.44e-06,0.0,0 STARLINK-5323,1 55279U 23010L   23285.17975187  .00000644  00000-0  61787-4 0  9996,2 55279  69.9984 102.0236 0003120 267.8791  92.2011 14.98323049 40726,6950.214,96.107,574.248,569.911,0.0
55279.0,STARLINK-5323,PAYLOAD,2023-10-12 13:55:38,14.98327455,0.0003185,69.9984,101.0137,266.3057,93.7738,0.00011793,1.314e-05,0.0,0 STARLINK-5323,1 55279U 23010L   23285.58031097  .00001314  00000-0  11793-3 0  9990,2 55279  69.9984 101.0137 0003185 266.3057  93.7738 14.98327455 41105,6950.201,96.107,574.279,569.852,0.0
55279.0,STARLINK-5323,PAYLOAD,2023-10-12 20:20:10,14.98331888,0.0003165,69.9993,100.3403,267.3792,92.7005,6.0613e-05,6.3e-06,0.0,0 STARLINK-5323,1 55279U 23010L   23285.84734591  .00000630  00000-0  60613-4 0  9994,2 55279  69.9993 100.3403 0003165 267.3792  92.7005 14.98331888 40827,6950.187,96.107,574.252,569.852,0.0
55279.0,STARLINK-5323,PAYLOAD,2023-10-12 21:56:18,14.98333805,0.0003165,69.9993,100.1719,267.4043,92.6754,0.00010623,1.175e-05,0.0,0 STARLINK-5323,1 55279U 23010L   23285.91410534  .00001175  00000-0  10623-3 0  9990,2 55279  69.9993 100.1719 0003165 267.4043  92.6754 14.98333805 41153,6950.181,96.107,574.246,569.846,0.0
55279.0,STARLINK-5323,PAYLOAD,2023-10-13 13:57:39,14.98337169,0.0003177,69.9995,98.4884,267.6428,92.4368,0.00012737,1.427e-05,0.0,0 STARLINK-5323,1 55279U 23010L   23286.58170165  .00001427  00000-0  12737-3 0  9995,2 55279  69.9995  98.4884 0003177 267.6428  92.4368 14.98337169 41256,6950.171,96.107,574.244,569.828,0.0
55279.0,STARLINK-5323,PAYLOAD,2023-10-13 20:22:11,14.9833914,0.0003167,69.9995,97.8151,268.2192,91.8604,0.00023209,2.678e-05,0.0,0 STARLINK-5323,1 55279U 23010L   23286.84874089  .00002678  00000-0  23209-3 0  9995,2 55279  69.9995  97.8151 0003167 268.2192  91.8604 14.98339140 40975,6950.165,96.106,574.231,569.829,0.0
55279.0,STARLINK-5323,PAYLOAD,2023-10-13 21:58:19,14.98340928,0.0003166,69.9996,97.6467,268.3195,91.7601,0.00029524,3.432e-05,0.0,0 STARLINK-5323,1 55279U 23010L   23286.91550029  .00003432  00000-0  29524-3 0  9993,2 55279  69.9996  97.6467 0003166 268.3195  91.7601 14.98340928 41307,6950.159,96.106,574.225,569.824,0.0
55279.0,STARLINK-5323,PAYLOAD,2023-10-14 10:47:24,14.98332517,0.0003121,69.9996,96.3001,267.7662,92.3139,0.00015009,1.698e-05,0.0,0 STARLINK-5323,1 55279U 23010L   23287.44958350  .00001698  00000-0  15009-3 0  9996,2 55279  69.9996  96.3001 0003121 267.7662  92.3139 14.98332517 41061,6950.185,96.107,574.219,569.881,0.0
55279.0,STARLINK-5323,PAYLOAD,2023-10-14 13:59:40,14.98330706,0.0003113,69.9997,95.9634,268.8987,91.1816,0.00018925,2.166e-05,0.0,0 STARLINK-5323,1 55279U 23010L   23287.58310452  .00002166  00000-0  18925-3 0  9997,2 55279  69.9997  95.9634 0003113 268.8987  91.1816 14.98330706 41407,6950.191,96.107,574.219,569.892,0.0
55279.0,STARLINK-5323,PAYLOAD,2023-10-14 20:24:12,14.983316,0.0003083,70.0,95.2905,271.5767,88.5039,0.0001917,2.195e-05,0.0,0 STARLINK-5323,1 55279U 23010L   23287.85014467  .00002195  00000-0  19170-3 0  9999,2 55279  70.0000  95.2905 0003083 271.5767  88.5039 14.98331600 41447,6950.188,96.107,574.196,569.91,0.0
55279.0,STARLINK-5323,PAYLOAD,2023-10-15 12:25:34,14.98300112,0.0002936,70.0006,93.6074,270.5596,89.5227,-0.0004674,-5.661e-05,0.0,0 STARLINK-5323,1 55279U 23010L   23288.51776551 -.00005661  00000-0 -46740-3 0  9998,2 55279  70.0006  93.6074 0002936 270.5596  89.5227 14.98300112 41227,6950.285,96.109,574.191,570.11,0.0
55279.0,STARLINK-5323,PAYLOAD,2023-10-15 14:01:43,14.98303177,0.0002866,69.9999,93.4395,270.1097,89.9734,-0.00020909,-2.585e-05,0.0,0 STARLINK-5323,1 55279U 23010L   23288.58453549 -.00002585  00000-0 -20909-3 0  9995,2 55279  69.9999  93.4395 0002866 270.1097  89.9734 14.98303177 41550,6950.276,96.109,574.133,570.149,0.0
55279.0,STARLINK-5323,PAYLOAD,2023-10-15 20:26:15,14.98319257,0.0002856,69.9998,92.766,268.206,91.8772,-2.3596e-05,-3.74e-06,0.0,0 STARLINK-5323,1 55279U 23010L   23288.85156402 -.00000374  00000-0 -23596-4 0  9993,2 55279  69.9998  92.7660 0002856 268.2060  91.8772 14.98319257 41272,6950.226,96.108,574.076,570.106,0.0
55279.0,STARLINK-5323,PAYLOAD,2023-10-16 14:03:43,14.98323171,0.0003069,69.9994,90.9142,270.0952,89.9855,7.8402e-05,8.42e-06,0.0,0 STARLINK-5323,1 55279U 23010L   23289.58592429  .00000842  00000-0  78402-4 0  9991,2 55279  69.9994  90.9142 0003069 270.0952  89.9855 14.98323171 41709,6950.214,96.107,574.212,569.946,0.0
55279.0,STARLINK-5323,PAYLOAD,2023-10-16 17:15:59,14.98324719,0.0003051,69.9995,90.5777,269.5694,90.5115,9.6068e-05,1.053e-05,0.0,0 STARLINK-5323,1 55279U 23010L   23289.71944400  .00001053  00000-0  96068-4 0  9999,2 55279  69.9995  90.5777 0003051 269.5694  90.5115 14.98324719 41400,6950.209,96.107,574.195,569.954,0.0
55279.0,STARLINK-5323,PAYLOAD,2023-10-17 12:29:36,14.98324286,0.0002841,69.9993,88.5572,272.3751,87.7083,0.0003892,4.553e-05,0.0,0 STARLINK-5323,1 55279U 23010L   23290.52056555  .00004553  00000-0  38920-3 0  9995,2 55279  69.9993  88.5572 0002841 272.3751  87.7083 14.98324286 41849,6950.211,96.107,574.05,570.101,0.0
55279.0,STARLINK-5323,PAYLOAD,2023-10-17 17:18:01,14.98325157,0.0002881,69.9994,88.0525,266.9218,93.1611,0.00046496,5.458e-05,0.0,0 STARLINK-5323,1 55279U 23010L   23290.72084509  .00005458  00000-0  46496-3 0  9999,2 55279  69.9994  88.0525 0002881 266.9218  93.1611 14.98325157 41558,6950.208,96.107,574.075,570.071,0.0
55279.0,STARLINK-5323,PAYLOAD,2023-10-18 12:31:36,14.98348711,0.0003074,69.9992,86.0325,268.5556,91.5251,0.0003077,3.582e-05,0.0,0 STARLINK-5323,1 55279U 23010L   23291.52195147  .00003582  00000-0  30770-3 0  9993,2 55279  69.9992  86.0325 0003074 268.5556  91.5251 14.98348711 41676,6950.135,96.106,574.137,569.864,0.0
55279.0,STARLINK-5323,PAYLOAD,2023-10-18 20:32:16,14.98356289,0.0003131,70.0008,85.1906,270.8386,89.2415,0.00047617,5.597e-05,0.0,0 STARLINK-5323,1 55279U 23010L   23291.85574655  .00005597  00000-0  47617-3 0  9990,2 55279  70.0008  85.1906 0003131 270.8386  89.2415 14.98356289 42040,6950.112,96.105,574.153,569.801,0.0
55279.0,STARLINK-5323,PAYLOAD,2023-10-19 12:33:36,14.98351487,0.0002819,70.0007,83.5073,270.0699,90.0137,0.00022126,2.549e-05,0.0,0 STARLINK-5323,1 55279U 23010L   23292.52334256  .00002549  00000-0  22126-3 0  9998,2 55279  70.0007  83.5073 0002819 270.0699  90.0137 14.98351487 41828,6950.126,96.106,573.951,570.032,0.0
55279.0,STARLINK-5323,PAYLOAD,2023-10-19 20:34:16,14.98349557,0.0002968,70.0004,82.6653,271.2714,88.8105,0.0001552,1.76e-05,0.0,0 STARLINK-5323,1 55279U 23010L   23292.85713947  .00001760  00000-0  15520-3 0  9996,2 55279  70.0004  82.6653 0002968 271.2714  88.8105 14.98349557 42191,6950.132,96.106,574.06,569.935,0.0
55279.0,STARLINK-5323,PAYLOAD,2023-10-20 12:35:38,14.98339449,0.0002761,69.9996,80.9822,270.5113,89.573,-0.00012242,-1.554e-05,0.0,0 STARLINK-5323,1 55279U 23010L   23293.52474575 -.00001554  00000-0 -12242-3 0  9993,2 55279  69.9996  80.9822 0002761 270.5113  89.5730 14.98339449 41979,6950.164,96.106,573.948,570.11,0.0
55279.0,STARLINK-5323,PAYLOAD,2023-10-21 12:37:38,14.98331395,0.0002561,69.9979,78.453,248.0223,112.0664,3.0881e-05,2.76e-06,0.0,0 STARLINK-5323,1 55279U 23010L   23294.52614166  .00000276  00000-0  30881-4 0  9994,2 55279  69.9979  78.4530 0002561 248.0223 112.0664 14.98331395 42441,6950.189,96.107,573.834,570.274,0.0
55279.0,STARLINK-5323,PAYLOAD,2023-10-21 19:02:10,14.98333707,0.0002547,69.9979,77.7796,252.8271,107.2609,4.725e-05,4.71e-06,0.0,0 STARLINK-5323,1 55279U 23010L   23294.79317964  .00000471  00000-0  47250-4 0  9994,2 55279  69.9979  77.7796 0002547 252.8271 107.2609 14.98333707 42160,6950.181,96.107,573.817,570.276,0.0
55279.0,STARLINK-5323,PAYLOAD,2023-10-21 20:38:18,14.98333495,0.0002572,69.9996,77.6147,262.561,97.5257,1.0783e-05,3.6e-07,0.0,0 STARLINK-5323,1 55279U 23010L   23294.85994077  .00000036  00000-0  10783-4 0  9995,2 55279  69.9996  77.6147 0002572 262.5610  97.5257 14.98333495 42491,6950.182,96.107,573.835,570.259,0.0
55279.0,STARLINK-5323,PAYLOAD,2023-10-22 03:02:51,14.98321643,0.0002957,69.9982,76.9408,269.8749,90.2071,2.7907e-05,2.4e-06,0.0,0 STARLINK-5323,1 55279U 23010L   23295.12698775  .00000240  00000-0  27907-4 0  9995,2 55279  69.9982  76.9408 0002957 269.8749  90.2071 14.98321643 42214,6950.219,96.108,574.139,570.029,0.0
55279.0,STARLINK-5323,PAYLOAD,2023-10-22 14:15:48,14.98321576,0.0002747,69.9988,75.7611,258.5106,101.5745,1.2684e-05,5.8e-07,0.0,0 STARLINK-5323,1 55279U 23010L   23295.59430904  .00000058  00000-0  12684-4 0  9997,2 55279  69.9988  75.7611 0002747 258.5106 101.5745 14.98321576 42604,6950.219,96.108,573.993,570.175,0.0
